ONEWEB-0207             
1 48242U 21031AJ  25328.72582123 -.00001306  00000+0 -35590-2 0  9992
2 48242  87.9009 330.4207 0001322  77.9114 282.2164 13.14500408221434
ONEWEB-0208             
1 48243U 21031AK  25328.70759779  .00000090  00000+0  20864-3 0  9990
2 48243  87.8988 330.4424 0001862  81.3756 278.7584 13.14502873221446
ONEWEB-0200             
1 48244U 21031AL  25328.74723964 -.00000048  00000+0 -16530-3 0  9992
2 48244  87.8986 330.4244 0001827  86.2774 273.8564 13.14501950221371
ONEWEB-0217             
1 48245U 21031AM  25328.53474498  .00000098  00000+0  22927-3 0  9995
2 48245  87.8996 330.4593 0001946  81.0956 279.0394 13.14502157221297
ONEWEB-0211             
1 48767U 21045A   25328.69234096  .00000098  00000+0  22359-3 0  9993
2 48767  87.8983 299.9258 0002276  75.2138 284.9244 13.16136173217548
ONEWEB-0223             
1 48768U 21045B   25328.67510883  .00000118  00000+0  27987-3 0  9998
2 48768  87.8981 299.9896 0002345  84.8420 275.2977 13.15546361217518
ONEWEB-0230             
1 48769U 21045C   25328.49447970 -.00000184  00000+0 -52171-3 0  9993
2 48769  87.8971 300.0580 0001893  87.8784 272.2563 13.15547300217753
ONEWEB-0237             
1 48770U 21045D   25328.63549902 -.00000052  00000+0 -17136-3 0  9995
2 48770  87.8973 300.0290 0002204  85.0226 275.1156 13.15547782217498
